[{"OBJECT_NAME":"SAPPHIRE","OBJECT_ID":"2013-009C","EPOCH":"2026-04-05T10:46:11.811648","MEAN_MOTION":14.35220714,"ECCENTRICITY":0.00123395,"INCLINATION":98.4242,"RA_OF_ASC_NODE":276.6359,"ARG_OF_PERICENTER":104.5199,"MEAN_ANOMALY":255.7356,"EPHEMERIS_TYPE":0,"CLASSIFICATION_TYPE":"U","NORAD_CAT_ID":39088,"ELEMENT_SET_NO":999,"REV_AT_EPOCH":68614,"BSTAR":8.7767098e-5,"MEAN_MOTION_DOT":2.09e-6,"MEAN_MOTION_DDOT":0},{"OBJECT_NAME":"PRAETORIAN SDA_602","OBJECT_ID":"2025-203A","EPOCH":"2026-04-02T22:18:18.730944","MEAN_MOTION":13.84155046,"ECCENTRICITY":0.00049253,"INCLINATION":81.2997,"RA_OF_ASC_NODE":80.4757,"ARG_OF_PERICENTER":47.0603,"MEAN_ANOMALY":313.0966,"EPHEMERIS_TYPE":0,"CLASSIFICATION_TYPE":"U","NORAD_CAT_ID":65565,"ELEMENT_SET_NO":999,"REV_AT_EPOCH":2828,"BSTAR":-0.020589454,"MEAN_MOTION_DOT":-0.0002285,"MEAN_MOTION_DDOT":0},{"OBJECT_NAME":"PRAETORIAN SDA_603","OBJECT_ID":"2025-203B","EPOCH":"2026-04-05T09:22:03.175392","MEAN_MOTION":13.83896415,"ECCENTRICITY":0.00103658,"INCLINATION":81.3006,"RA_OF_ASC_NODE":78.0614,"ARG_OF_PERICENTER":36.0053,"MEAN_ANOMALY":324.18,"EPHEMERIS_TYPE":0,"CLASSIFICATION_TYPE":"U","NORAD_CAT_ID":65566,"ELEMENT_SET_NO":999,"REV_AT_EPOCH":2863,"BSTAR":0.00021005381,"MEAN_MOTION_DOT":2.45e-6,"MEAN_MOTION_DDOT":0},{"OBJECT_NAME":"PRAETORIAN SDA_604","OBJECT_ID":"2025-203C","EPOCH":"2026-04-05T15:42:02.740896","MEAN_MOTION":13.83037774,"ECCENTRICITY":0.000651,"INCLINATION":81.3024,"RA_OF_ASC_NODE":78.1185,"ARG_OF_PERICENTER":45.5434,"MEAN_ANOMALY":314.6253,"EPHEMERIS_TYPE":0,"CLASSIFICATION_TYPE":"U","NORAD_CAT_ID":65567,"ELEMENT_SET_NO":999,"REV_AT_EPOCH":2865,"BSTAR":5.9914e-5,"MEAN_MOTION_DOT":7.7e-7,"MEAN_MOTION_DDOT":0},{"OBJECT_NAME":"PRAETORIAN SDA_605","OBJECT_ID":"2025-203D","EPOCH":"2026-04-04T01:10:03.617472","MEAN_MOTION":13.83532328,"ECCENTRICITY":0.00090765,"INCLINATION":81.2987,"RA_OF_ASC_NODE":79.3378,"ARG_OF_PERICENTER":36.1621,"MEAN_ANOMALY":324.0147,"EPHEMERIS_TYPE":0,"CLASSIFICATION_TYPE":"U","NORAD_CAT_ID":65568,"ELEMENT_SET_NO":999,"REV_AT_EPOCH":2844,"BSTAR":6.5775386e-5,"MEAN_MOTION_DOT":8.4e-7,"MEAN_MOTION_DDOT":0},{"OBJECT_NAME":"PRAETORIAN SDA_606","OBJECT_ID":"2025-203E","EPOCH":"2026-04-05T11:32:01.556448","MEAN_MOTION":13.83531719,"ECCENTRICITY":0.00067074,"INCLINATION":81.3025,"RA_OF_ASC_NODE":78.2126,"ARG_OF_PERICENTER":37.2659,"MEAN_ANOMALY":322.8961,"EPHEMERIS_TYPE":0,"CLASSIFICATION_TYPE":"U","NORAD_CAT_ID":65569,"ELEMENT_SET_NO":999,"REV_AT_EPOCH":2863,"BSTAR":5.1896492e-5,"MEAN_MOTION_DOT":6.9e-7,"MEAN_MOTION_DDOT":0},{"OBJECT_NAME":"PRAETORIAN SDA_607","OBJECT_ID":"2025-203F","EPOCH":"2026-04-04T02:03:21.943296","MEAN_MOTION":13.84343348,"ECCENTRICITY":0.00097402,"INCLINATION":81.2994,"RA_OF_ASC_NODE":79.2728,"ARG_OF_PERICENTER":39.0961,"MEAN_ANOMALY":321.0898,"EPHEMERIS_TYPE":0,"CLASSIFICATION_TYPE":"U","NORAD_CAT_ID":65570,"ELEMENT_SET_NO":999,"REV_AT_EPOCH":2845,"BSTAR":-0.0050729237,"MEAN_MOTION_DOT":-5.653e-5,"MEAN_MOTION_DDOT":0},{"OBJECT_NAME":"PRAETORIAN SDA_608","OBJECT_ID":"2025-203G","EPOCH":"2026-04-05T09:52:59.097504","MEAN_MOTION":13.83890445,"ECCENTRICITY":0.00069319,"INCLINATION":81.2977,"RA_OF_ASC_NODE":78.1769,"ARG_OF_PERICENTER":44.6586,"MEAN_ANOMALY":315.5127,"EPHEMERIS_TYPE":0,"CLASSIFICATION_TYPE":"U","NORAD_CAT_ID":65571,"ELEMENT_SET_NO":999,"REV_AT_EPOCH":2862,"BSTAR":6.006198e-5,"MEAN_MOTION_DOT":7.9e-7,"MEAN_MOTION_DDOT":0},{"OBJECT_NAME":"PRAETORIAN SDA_609","OBJECT_ID":"2025-203H","EPOCH":"2026-04-05T20:59:36.365280","MEAN_MOTION":13.84300681,"ECCENTRICITY":0.0007696,"INCLINATION":81.3024,"RA_OF_ASC_NODE":77.7509,"ARG_OF_PERICENTER":37.4584,"MEAN_ANOMALY":322.7108,"EPHEMERIS_TYPE":0,"CLASSIFICATION_TYPE":"U","NORAD_CAT_ID":65572,"ELEMENT_SET_NO":999,"REV_AT_EPOCH":2869,"BSTAR":0.00027331,"MEAN_MOTION_DOT":3.17e-6,"MEAN_MOTION_DDOT":0},{"OBJECT_NAME":"PRAETORIAN SDA_610","OBJECT_ID":"2025-203J","EPOCH":"2026-04-05T11:12:50.475168","MEAN_MOTION":13.83913183,"ECCENTRICITY":0.00074242,"INCLINATION":81.2979,"RA_OF_ASC_NODE":78.0902,"ARG_OF_PERICENTER":40.8836,"MEAN_ANOMALY":319.2876,"EPHEMERIS_TYPE":0,"CLASSIFICATION_TYPE":"U","NORAD_CAT_ID":65573,"ELEMENT_SET_NO":999,"REV_AT_EPOCH":2863,"BSTAR":3.7902168e-5,"MEAN_MOTION_DOT":5.4e-7,"MEAN_MOTION_DDOT":0},{"OBJECT_NAME":"PRAETORIAN SDA_611","OBJECT_ID":"2025-203K","EPOCH":"2026-04-05T20:54:24.746400","MEAN_MOTION":13.83300015,"ECCENTRICITY":0.0006671,"INCLINATION":81.2984,"RA_OF_ASC_NODE":77.8168,"ARG_OF_PERICENTER":47.5418,"MEAN_ANOMALY":312.6301,"EPHEMERIS_TYPE":0,"CLASSIFICATION_TYPE":"U","NORAD_CAT_ID":65574,"ELEMENT_SET_NO":999,"REV_AT_EPOCH":2868,"BSTAR":0.00035243,"MEAN_MOTION_DOT":3.99e-6,"MEAN_MOTION_DDOT":0},{"OBJECT_NAME":"PRAETORIAN SDA_612","OBJECT_ID":"2025-203L","EPOCH":"2026-04-05T21:05:19.864032","MEAN_MOTION":13.85028977,"ECCENTRICITY":0.0010084,"INCLINATION":81.3001,"RA_OF_ASC_NODE":77.5739,"ARG_OF_PERICENTER":35.0117,"MEAN_ANOMALY":325.1701,"EPHEMERIS_TYPE":0,"CLASSIFICATION_TYPE":"U","NORAD_CAT_ID":65575,"ELEMENT_SET_NO":999,"REV_AT_EPOCH":2870,"BSTAR":0.00029052,"MEAN_MOTION_DOT":3.4e-6,"MEAN_MOTION_DDOT":0},{"OBJECT_NAME":"PRAETORIAN SDA_613","OBJECT_ID":"2025-203M","EPOCH":"2026-04-05T10:06:48.119328","MEAN_MOTION":13.82945223,"ECCENTRICITY":0.00066351,"INCLINATION":81.297,"RA_OF_ASC_NODE":78.1865,"ARG_OF_PERICENTER":42.3508,"MEAN_ANOMALY":317.8159,"EPHEMERIS_TYPE":0,"CLASSIFICATION_TYPE":"U","NORAD_CAT_ID":65576,"ELEMENT_SET_NO":999,"REV_AT_EPOCH":2862,"BSTAR":5.5463753e-5,"MEAN_MOTION_DOT":7.2e-7,"MEAN_MOTION_DDOT":0},{"OBJECT_NAME":"PRAETORIAN SDA_614","OBJECT_ID":"2025-203N","EPOCH":"2026-04-05T15:18:05.125248","MEAN_MOTION":13.84769252,"ECCENTRICITY":0.0007964,"INCLINATION":81.2985,"RA_OF_ASC_NODE":77.8571,"ARG_OF_PERICENTER":35.8622,"MEAN_ANOMALY":324.3068,"EPHEMERIS_TYPE":0,"CLASSIFICATION_TYPE":"U","NORAD_CAT_ID":65577,"ELEMENT_SET_NO":999,"REV_AT_EPOCH":2867,"BSTAR":6.2115e-5,"MEAN_MOTION_DOT":8.2e-7,"MEAN_MOTION_DDOT":0},{"OBJECT_NAME":"PRAETORIAN SDA_615","OBJECT_ID":"2025-203P","EPOCH":"2026-04-05T10:50:49.776000","MEAN_MOTION":13.84424657,"ECCENTRICITY":0.00098836,"INCLINATION":81.2997,"RA_OF_ASC_NODE":77.9474,"ARG_OF_PERICENTER":35.3015,"MEAN_ANOMALY":324.8794,"EPHEMERIS_TYPE":0,"CLASSIFICATION_TYPE":"U","NORAD_CAT_ID":65578,"ELEMENT_SET_NO":999,"REV_AT_EPOCH":2864,"BSTAR":0.00025104283,"MEAN_MOTION_DOT":2.93e-6,"MEAN_MOTION_DDOT":0},{"OBJECT_NAME":"PRAETORIAN SDA_616","OBJECT_ID":"2025-203Q","EPOCH":"2026-04-05T20:52:54.683904","MEAN_MOTION":13.83315295,"ECCENTRICITY":0.0006429,"INCLINATION":81.3035,"RA_OF_ASC_NODE":77.919,"ARG_OF_PERICENTER":46.8178,"MEAN_ANOMALY":313.3514,"EPHEMERIS_TYPE":0,"CLASSIFICATION_TYPE":"U","NORAD_CAT_ID":65579,"ELEMENT_SET_NO":999,"REV_AT_EPOCH":2868,"BSTAR":0.00030267,"MEAN_MOTION_DOT":3.44e-6,"MEAN_MOTION_DDOT":0}]
