SAPPHIRE                
1 39088U 13009C   26095.44874782  .00000209  00000+0  87767-4 0  9996
2 39088  98.4242 276.6359 0012339 104.5199 255.7356 14.35220714686141
PRAETORIAN SDA_602      
1 65565U 25203A   26092.92938346 -.00022850  00000+0 -20589-1 0  9995
2 65565  81.2997  80.4757 0004925  47.0603 313.0966 13.84155046 28281
PRAETORIAN SDA_603      
1 65566U 25203B   26095.39031453  .00000245  00000+0  21005-3 0  9991
2 65566  81.3006  78.0614 0010365  36.0053 324.1800 13.83896415 28631
PRAETORIAN SDA_604      
1 65567U 25203C   26095.65419839  .00000077  00000+0  59914-4 0  9993
2 65567  81.3024  78.1185 0006510  45.5434 314.6253 13.83037774 28654
PRAETORIAN SDA_605      
1 65568U 25203D   26094.04865298  .00000084  00000+0  65775-4 0  9990
2 65568  81.2987  79.3378 0009076  36.1621 324.0147 13.83532328 28442
PRAETORIAN SDA_606      
1 65569U 25203E   26095.48057357  .00000069  00000+0  51896-4 0  9991
2 65569  81.3025  78.2126 0006707  37.2659 322.8961 13.83531719 28631
PRAETORIAN SDA_607      
1 65570U 25203F   26094.08567064 -.00005653  00000+0 -50729-2 0  9997
2 65570  81.2994  79.2728 0009740  39.0961 321.0898 13.84343348 28452
PRAETORIAN SDA_608      
1 65571U 25203G   26095.41179511  .00000079  00000+0  60062-4 0  9990
2 65571  81.2977  78.1769 0006931  44.6586 315.5127 13.83890445 28627
PRAETORIAN SDA_609      
1 65572U 25203H   26095.87472645  .00000317  00000+0  27331-3 0  9991
2 65572  81.3024  77.7509 0007696  37.4584 322.7108 13.84300681 28691
PRAETORIAN SDA_610      
1 65573U 25203J   26095.46725087  .00000054  00000+0  37902-4 0  9992
2 65573  81.2979  78.0902 0007424  40.8836 319.2876 13.83913183 28631
PRAETORIAN SDA_611      
1 65574U 25203K   26095.87111975  .00000399  00000+0  35243-3 0  9990
2 65574  81.2984  77.8168 0006671  47.5418 312.6301 13.83300015 28681
PRAETORIAN SDA_612      
1 65575U 25203L   26095.87870213  .00000340  00000+0  29052-3 0  9995
2 65575  81.3001  77.5739 0010084  35.0117 325.1701 13.85028977 28707
PRAETORIAN SDA_613      
1 65576U 25203M   26095.42139027  .00000072  00000+0  55464-4 0  9997
2 65576  81.2970  78.1865 0006635  42.3508 317.8159 13.82945223 28626
PRAETORIAN SDA_614      
1 65577U 25203N   26095.63755932  .00000082  00000+0  62115-4 0  9992
2 65577  81.2985  77.8571 0007964  35.8622 324.3068 13.84769252 28678
PRAETORIAN SDA_615      
1 65578U 25203P   26095.45196500  .00000293  00000+0  25104-3 0  9993
2 65578  81.2997  77.9474 0009883  35.3015 324.8794 13.84424657 28643
PRAETORIAN SDA_616      
1 65579U 25203Q   26095.87007736  .00000344  00000+0  30267-3 0  9995
2 65579  81.3035  77.9190 0006429  46.8178 313.3514 13.83315295 28686
